STARLINK-32706          
1 62308C 24239H   26094.70465278  .00003193  00000+0  10767-3 0   944
2 62308  53.1582  73.3446 0001112  87.9405 256.3939 15.30172669    18
STARLINK-32678          
1 62309C 24239J   26094.67826389  .00034673  00000+0  11672-2 0   947
2 62309  53.1602  60.5638 0001333 100.5664 159.5154 15.30214155    17
STARLINK-32696          
1 62310C 24239K   26094.64423611 -.00064264  00000+0 -21660-2 0   946
2 62310  53.1577  73.5929 0001324  98.4574 290.2952 15.30222321    15
STARLINK-32700          
1 62311C 24239L   26094.73937500 -.00048930  00000+0 -16493-2 0   944
2 62311  53.1603  60.2482 0001477  86.1254 168.2287 15.30212159    14
STARLINK-32698          
1 62312C 24239M   26094.68034722 -.00075538  00000+0 -25433-2 0   941
2 62312  53.1583  73.4913 0001231  69.8004 123.0079 15.30263144    14
STARLINK-32634          
1 62313C 24239N   26094.68520833 -.00026445  00000+0 -89174-3 0   941
2 62313  53.1586  60.1883 0001356  97.5192  15.3493 15.30188731    12
STARLINK-32651          
1 62314C 24239P   26094.61506944 -.00051626  00000+0 -17393-2 0   944
2 62314  53.1591  73.4144 0001045  93.5533 291.4623 15.30231123    12
STARLINK-32627          
1 62315C 24239Q   26094.69909722 -.00051290  00000+0 -17290-2 0   947
2 62315  53.1580  73.3356 0001217 103.2888 204.6229 15.30211042    14
STARLINK-32596          
1 62316C 24239R   26094.71784722  .00018959  00000+0  63941-3 0   940
2 62316  53.1578  73.2141 0001180  93.3108 358.6540 15.30160349    15
STARLINK-32519          
1 62317C 24239S   26094.71368056 -.00022393  00000+0 -75495-3 0   945
2 62317  53.1589  59.9361 0001250 105.3148 222.6345 15.30193590    16
STARLINK-32527          
1 62319C 24239U   26094.69215278 -.00034039  00000+0 -11473-2 0   946
2 62319  53.1591  60.0141 0001243 103.9599 116.9682 15.30207543    19
STARLINK-32481          
1 62320C 24239V   26094.72409722 -.00019254  00000+0 -64936-3 0   946
2 62320  53.1584  59.9363 0001204  92.2942 269.8316 15.30180356    19
STARLINK-32645          
1 62321C 24239W   26094.71854167  .00060053  00000+0  20257-2 0   941
2 62321  53.1586  60.0093 0001776  99.1542 209.0214 15.30133491    12
STARLINK-32654          
1 62322C 24239X   26094.67548611  .00008082  00000+0  27262-3 0   949
2 62322  53.1595  73.0864 0001280  91.0675 290.2568 15.30160259    17
STARLINK-11444 [DTC]    
1 62409C 24249A   26094.68520833 -.00298310  00000+0 -23226-2 0   945
2 62409  43.0005  11.2768 0001614 258.7206 170.0854 15.70927726    14
STARLINK-11493 [DTC]    
1 62410C 24249B   26094.71784722 -.00133530  00000+0 -10389-2 0   948
2 62410  43.0005  11.1546 0001512 252.7163 330.8333 15.70864450    14
STARLINK-11453 [DTC]    
1 62411C 24249C   26094.71506944 -.00068624  00000+0 -53350-3 0   944
2 62411  43.0005  10.7226 0001345 241.2287 146.9525 15.70850763    10
STARLINK-11462 [DTC]    
1 62412C 24249D   26094.69145833  .00232020  00000+0  12399-2 0   946
2 62412  42.9988  10.7518 0007005 232.3946  65.2524 15.79233458    12
STARLINK-11441 [DTC]    
1 62413C 24249E   26094.71368056 -.00076544  00000+0 -59643-3 0   947
2 62413  43.0006  10.5056 0001836 277.5185 193.0160 15.70799434    11
STARLINK-11445 [DTC]    
1 62414C 24249F   26094.66576389 -.00248790  00000+0 -19365-2 0   942
2 62414  43.0004  10.9435 0001341 258.4214 240.6463 15.70911916    13
STARLINK-11355 [DTC]    
1 62415C 24249G   26094.63104167 -.00282810  00000+0 -22009-2 0   941
2 62415  43.0005  11.0695 0001451 287.4918  45.0304 15.70931770    11
STARLINK-11446 [DTC]    
1 62416C 24249H   26094.65604167 -.00171770  00000+0 -13359-2 0   949
2 62416  43.0006  10.7019 0001539 273.8185 290.4582 15.70891199    15
STARLINK-11428 [DTC]    
1 62417C 24249J   26094.67270833 -.00286410  00000+0 -22283-2 0   945
2 62417  43.0002  11.2072 0001557 263.1145 155.0330 15.70940001    19
STARLINK-11447 [DTC]    
1 62418C 24249K   26094.70465278 -.00065167  00000+0 -50671-3 0   946
2 62418  43.0007  10.4828 0001704 260.4977 188.9602 15.70844269    18
STARLINK-11434 [DTC]    
1 62420C 24249M   26094.72340278 -.00260230  00000+0 -20271-2 0   943
2 62420  43.0004  10.9667 0001553 268.5834  46.5528 15.70897273    16
STARLINK-11461 [DTC]    
1 62421C 24249N   26094.66506944 -.00113770  00000+0 -88715-3 0   945
2 62421  43.0005  11.1684 0001638 274.4025 130.5829 15.70799629    16
STARLINK-32692          
1 62422C 24249P   26094.61854167 -.00104090  00000+0 -37744-2 0   944
2 62422  43.0019 175.6080 0001616 272.0059 205.4668 15.27591795    14
STARLINK-32680          
1 62423C 24249Q   26094.68590278  .00076751  00000+0  27858-2 0   947
2 62423  43.0029 167.4318 0001456 279.6764 218.3683 15.27470792    10
STARLINK-32638          
1 62424C 24249R   26094.71159722  .00027481  00000+0  99705-3 0   944
2 62424  43.0023 178.7465 0001552 270.1746 284.4878 15.27508944    17
STARLINK-32283          
1 62425C 24249S   26094.67131944  .00080410  00000+0  29131-2 0   942
2 62425  43.0019 163.7852 0001223 271.7761 256.4423 15.27532120    14
STARLINK-32676          
1 62426C 24249T   26094.70534722  .00066062  00000+0  23962-2 0   941
2 62426  42.9993 167.6399 0001892 283.2823 187.3133 15.27497344    10
STARLINK-32659          
1 62427C 24249U   26094.67479167 -.00000011  00000+0 -39030-6 0   940
2 62427  43.0002 167.6300 0001546 269.6394 110.5617 15.27536340    18
STARLINK-32614          
1 62428C 24249V   26094.70673611  .00055138  00000+0  20005-2 0   941
2 62428  43.0018 175.0698 0001513 274.9103 349.3666 15.27494939    13
STARLINK-32418          
1 62429C 24249W   26094.71090278  .00062220  00000+0  22568-2 0   941
2 62429  43.0015 167.0670 0001590 255.6563 111.9431 15.27500987    17
STARLINK-32702          
1 62432C 24251A   26094.63729167 -.00141350  00000+0 -47669-2 0   948
2 62432  53.1603 211.9205 0001252  79.6806 199.7114 15.30243492    19
STARLINK-32712          
1 62433C 24251B   26094.70881944 -.00083593  00000+0 -28197-2 0   948
2 62433  53.1599 214.5710 0000994  92.6401 147.6720 15.30206706    14
STARLINK-32674          
1 62434C 24251C   26094.72201389  .00076316  00000+0  25718-2 0   949
2 62434  53.1571 214.1006 0001440  82.5845  79.7872 15.30157023    16
STARLINK-32711          
1 62435C 24251D   26094.72548611 -.00051864  00000+0 -17502-2 0   947
2 62435  53.1602 214.4600 0001414  96.3697 253.2880 15.30177833    13
STARLINK-32697          
1 62436C 24251E   26094.73520833  .00032993  00000+0  11148-2 0   945
2 62436  53.1600 214.2787 0001275  78.5981  34.5292 15.30094526    13
STARLINK-32693          
1 62437C 24251F   26094.68659722 -.00022073  00000+0 -74470-3 0   948
2 62437  53.1581 211.8491 0001352  96.8359 338.0956 15.30168976    15
STARLINK-32721          
1 62438C 24251G   26094.65048611 -.00143250  00000+0 -48292-2 0   948
2 62438  53.1590 214.5877 0001238 103.6574 303.0898 15.30254956    14
STARLINK-32709          
1 62439C 24251H   26094.63451389 -.00054667  00000+0 -18441-2 0   943
2 62439  53.1576 215.1028 0001202  83.9919  13.7294 15.30191556    19
STARLINK-32689          
1 62440C 24251J   26094.65534722 -.00253510  00000+0 -85535-2 0   946
2 62440  53.1573 214.3597 0001087  95.4375  82.8714 15.30282910    14
STARLINK-32724          
1 62441C 24251K   26094.73659722 -.00024303  00000+0 -81966-3 0   945
2 62441  53.1594 214.2147 0001269  82.6855  67.0759 15.30182004    18
STARLINK-32291          
1 62442C 24251L   26094.68243056 -.00054122  00000+0 -18252-2 0   948
2 62442  53.1602 214.5546 0001348  74.7678  89.9044 15.30198810    10
STARLINK-32736          
1 62443C 24251M   26094.71923611 -.00003301  00000+0 -11134-3 0   941
2 62443  53.1604 214.4677 0001283  87.5676 239.2552 15.30170732    12
STARLINK-32737          
1 62444C 24251N   26094.64145833 -.00062159  00000+0 -20971-2 0   940
2 62444  53.1593 212.4602 0001952  89.3767 288.0277 15.30189198    12
STARLINK-32683          
1 62445C 24251P   26094.61784722 -.00208700  00000+0 -70340-2 0   943
2 62445  53.1579 215.1281 0000973  90.3290 298.7472 15.30295923    14
STARLINK-32726          
1 62446C 24251Q   26094.71784722 -.00075988  00000+0 -25626-2 0   942
2 62446  53.1592 214.2861 0001352 105.7559 306.4749 15.30209877    12
STARLINK-32730          
1 62447C 24251R   26094.66020833 -.00065374  00000+0 -22052-2 0   941
2 62447  53.1579 214.4710 0001234  84.5108  50.7588 15.30197150    16
STARLINK-32719          
1 62448C 24251S   26094.62826389 -.00163850  00000+0 -55225-2 0   944
2 62448  53.1574 215.1528 0001307  73.4691 262.6371 15.30272404    12
STARLINK-32723          
1 62449C 24251T   26094.70743056 -.00104080  00000+0 -35100-2 0   943
2 62449  53.1595 214.3587 0001468  78.3546 264.8272 15.30224655    12
STARLINK-32722          
1 62450C 24251U   26094.67965278 -.00019966  00000+0 -67345-3 0   948
2 62450  53.1584 214.4265 0001373 111.1302 108.0443 15.30176487    15
STARLINK-32720          
1 62451C 24251V   26094.73173611 -.00066607  00000+0 -22465-2 0   945
2 62451  53.1592 214.5233 0001354  86.0270 251.5378 15.30201278    12
STARLINK-32656          
1 62452C 24251W   26094.72409722 -.00045362  00000+0 -15302-2 0   947
2 62452  53.1577 214.7155 0001407  73.2208 140.8083 15.30186792    15
STARLINK-32690          
1 62453C 24251X   26094.67756944 -.00133140  00000+0 -44884-2 0   942
2 62453  53.1582 214.4039 0002330  84.6570 140.4553 15.30248839    13
STARLINK-11518 [DTC]    
1 62462C 24254A   26094.69979167 -.00171850  00000+0 -13355-2 0   940
2 62462  43.0005  66.5926 0001661 258.3360 243.7058 15.70910558    10
STARLINK-11455 [DTC]    
1 62463C 24254B   26094.64909722 -.00057259  00000+0 -44611-3 0   942
2 62463  43.0006  66.9718 0001713 269.0365 276.0030 15.70792680    10
STARLINK-11178 [DTC]    
1 62465C 24254D   26094.72270833 -.00161840  00000+0 -12589-2 0   947
2 62465  43.0006  66.3032 0002054 255.6816  76.2753 15.70880837    10
